{
  "type": "FeatureCollection",
  "features": [
    {
      "type": "Feature",
      "properties": {
        "norad_id": 37781,
        "name": "HAIYANG-2A",
        "group": "resource",
        "lat": 43.45006008803651,
        "lon": 172.77575653817146,
        "alt_km": 963.4625820023766,
        "timestamp": "2025-12-08T19:31:48.484726+00:00",
        "meta_object_name": "HAIYANG-2A",
        "meta_object_id": "2011-043A",
        "meta_epoch": "2025-12-08T06:41:00.690144",
        "meta_mean_motion": 13.78834721,
        "meta_eccentricity": 0.00016657,
        "meta_inclination": 99.3378,
        "meta_ra_of_asc_node": 343.2818,
        "meta_arg_of_pericenter": 90.3352,
        "meta_mean_anomaly": 269.799,
        "meta_ephemeris_type": 0,
        "meta_classification_type": "U",
        "meta_norad_cat_id": 37781,
        "meta_element_set_no": 999,
        "meta_rev_at_epoch": 72037,
        "meta_bstar": 4.5016088e-05,
        "meta_mean_motion_dot": 2e-08,
        "meta_mean_motion_ddot": 0,
        "tle_line1": "1 37781U 11043A   25342.27848021  .00000002  00000+0  45016-4 0  9994",
        "tle_line2": "2 37781  99.3378 343.2818 0001665  90.3352 269.7990 13.78834721720371"
      },
      "geometry": {
        "type": "Point",
        "coordinates": [
          172.77575653817146,
          43.45006008803651
        ]
      }
    },
    {
      "type": "Feature",
      "properties": {
        "norad_id": 37791,
        "name": "RASAT",
        "group": "resource",
        "lat": 73.50142144482675,
        "lon": 43.52563928340892,
        "alt_km": 645.2878388426734,
        "timestamp": "2025-12-08T19:31:48.484735+00:00",
        "meta_object_name": "RASAT",
        "meta_object_id": "2011-044D",
        "meta_epoch": "2025-12-08T06:11:49.526304",
        "meta_mean_motion": 14.67900599,
        "meta_eccentricity": 0.00219196,
        "meta_inclination": 98.0655,
        "meta_ra_of_asc_node": 71.5826,
        "meta_arg_of_pericenter": 78.6006,
        "meta_mean_anomaly": 303.0157,
        "meta_ephemeris_type": 0,
        "meta_classification_type": "U",
        "meta_norad_cat_id": 37791,
        "meta_element_set_no": 999,
        "meta_rev_at_epoch": 76517,
        "meta_bstar": 0.00023090736,
        "meta_mean_motion_dot": 1.276e-05,
        "meta_mean_motion_ddot": 0,
        "tle_line1": "1 37791U 11044D   25342.25821211  .00001276  00000+0  23091-3 0  9998",
        "tle_line2": "2 37791  98.0655  71.5826 0021919  78.6006 303.0157 14.67900599765175"
      },
      "geometry": {
        "type": "Point",
        "coordinates": [
          43.52563928340892,
          73.50142144482675
        ]
      }
    },
    {
      "type": "Feature",
      "properties": {
        "norad_id": 37841,
        "name": "SRMSAT",
        "group": "resource",
        "lat": -17.47038037965087,
        "lon": 11.790048959610187,
        "alt_km": 846.4014511533023,
        "timestamp": "2025-12-08T19:31:48.484750+00:00",
        "meta_object_name": "SRMSAT",
        "meta_object_id": "2011-058D",
        "meta_epoch": "2025-12-08T03:51:52.248096",
        "meta_mean_motion": 14.11508975,
        "meta_eccentricity": 0.00117025,
        "meta_inclination": 19.97,
        "meta_ra_of_asc_node": 135.6633,
        "meta_arg_of_pericenter": 262.6363,
        "meta_mean_anomaly": 254.9906,
        "meta_ephemeris_type": 0,
        "meta_classification_type": "U",
        "meta_norad_cat_id": 37841,
        "meta_element_set_no": 999,
        "meta_rev_at_epoch": 73079,
        "meta_bstar": 0.00013286554,
        "meta_mean_motion_dot": 5.1e-06,
        "meta_mean_motion_ddot": 0,
        "tle_line1": "1 37841U 11058D   25342.16102139  .00000510  00000+0  13287-3 0  9996",
        "tle_line2": "2 37841  19.9700 135.6633 0011702 262.6363 254.9906 14.11508975730799"
      },
      "geometry": {
        "type": "Point",
        "coordinates": [
          11.790048959610187,
          -17.47038037965087
        ]
      }
    },
    {
      "type": "Feature",
      "properties": {
        "norad_id": 38012,
        "name": "PLEIADES 1A",
        "group": "resource",
        "lat": 2.453482538162337,
        "lon": 55.28957290654743,
        "alt_km": 700.2428159317687,
        "timestamp": "2025-12-08T19:31:48.484759+00:00",
        "meta_object_name": "PLEIADES 1A",
        "meta_object_id": "2011-076F",
        "meta_epoch": "2025-12-08T06:32:02.471712",
        "meta_mean_motion": 14.5855541,
        "meta_eccentricity": 0.0001322,
        "meta_inclination": 98.183,
        "meta_ra_of_asc_node": 55.1097,
        "meta_arg_of_pericenter": 78.5417,
        "meta_mean_anomaly": 322.4223,
        "meta_ephemeris_type": 0,
        "meta_classification_type": "U",
        "meta_norad_cat_id": 38012,
        "meta_element_set_no": 999,
        "meta_rev_at_epoch": 74416,
        "meta_bstar": 0.00019461229,
        "meta_mean_motion_dot": 8.59e-06,
        "meta_mean_motion_ddot": 0,
        "tle_line1": "1 38012U 11076F   25342.27225083  .00000859  00000+0  19461-3 0  9999",
        "tle_line2": "2 38012  98.1830  55.1097 0001322  78.5417 322.4223 14.58555410744160"
      },
      "geometry": {
        "type": "Point",
        "coordinates": [
          55.28957290654743,
          2.453482538162337
        ]
      }
    },
    {
      "type": "Feature",
      "properties": {
        "norad_id": 38038,
        "name": "ZIYUAN 1-02C (ZY 1-02C)",
        "group": "resource",
        "lat": -20.31170523793708,
        "lon": -134.24839863714521,
        "alt_km": 767.1192521853791,
        "timestamp": "2025-12-08T19:31:48.484768+00:00",
        "meta_object_name": "ZIYUAN 1-02C (ZY 1-02C)",
        "meta_object_id": "2011-079A",
        "meta_epoch": "2025-12-08T07:16:39.260352",
        "meta_mean_motion": 14.38005118,
        "meta_eccentricity": 0.00070158,
        "meta_inclination": 98.4341,
        "meta_ra_of_asc_node": 48.3987,
        "meta_arg_of_pericenter": 150.8447,
        "meta_mean_anomaly": 288.16,
        "meta_ephemeris_type": 0,
        "meta_classification_type": "U",
        "meta_norad_cat_id": 38038,
        "meta_element_set_no": 999,
        "meta_rev_at_epoch": 73177,
        "meta_bstar": 0.00034408412,
        "meta_mean_motion_dot": 9.98e-06,
        "meta_mean_motion_ddot": 0,
        "tle_line1": "1 38038U 11079A   25342.30323218  .00000998  00000+0  34408-3 0  9995",
        "tle_line2": "2 38038  98.4341  48.3987 0007015 150.8447 288.1600 14.38005118731775"
      },
      "geometry": {
        "type": "Point",
        "coordinates": [
          -134.24839863714521,
          -20.31170523793708
        ]
      }
    },
    {
      "type": "Feature",
      "properties": {
        "norad_id": 38046,
        "name": "ZIYUAN 3-1 (ZY 3-1)",
        "group": "resource",
        "lat": -40.64021369383594,
        "lon": 55.34981529838715,
        "alt_km": 370.9761015743452,
        "timestamp": "2025-12-08T19:31:48.484778+00:00",
        "meta_object_name": "ZIYUAN 3-1 (ZY 3-1)",
        "meta_object_id": "2012-001A",
        "meta_epoch": "2025-12-08T07:26:59.518176",
        "meta_mean_motion": 15.67728474,
        "meta_eccentricity": 0.00019363,
        "meta_inclination": 97.1758,
        "meta_ra_of_asc_node": 48.627,
        "meta_arg_of_pericenter": 11.6453,
        "meta_mean_anomaly": 348.4853,
        "meta_ephemeris_type": 0,
        "meta_classification_type": "U",
        "meta_norad_cat_id": 38046,
        "meta_element_set_no": 999,
        "meta_rev_at_epoch": 77427,
        "meta_bstar": 0.00073374849,
        "meta_mean_motion_dot": 0.00080758,
        "meta_mean_motion_ddot": 0,
        "tle_line1": "1 38046U 12001A   25342.31041109  .00080758  00000+0  73375-3 0  9995",
        "tle_line2": "2 38046  97.1758  48.6270 0001936  11.6453 348.4853 15.67728474774279"
      },
      "geometry": {
        "type": "Point",
        "coordinates": [
          55.34981529838715,
          -40.64021369383594
        ]
      }
    },
    {
      "type": "Feature",
      "properties": {
        "norad_id": 38338,
        "name": "ARIRANG-3 (KOMPSAT-3)",
        "group": "resource",
        "lat": -35.13990832208367,
        "lon": 111.45317996733087,
        "alt_km": 696.8245753349174,
        "timestamp": "2025-12-08T19:31:48.484787+00:00",
        "meta_object_name": "ARIRANG-3 (KOMPSAT-3)",
        "meta_object_id": "2012-025B",
        "meta_epoch": "2025-12-08T07:02:48.824160",
        "meta_mean_motion": 14.61704061,
        "meta_eccentricity": 0.0005677,
        "meta_inclination": 98.3318,
        "meta_ra_of_asc_node": 296.8497,
        "meta_arg_of_pericenter": 353.2279,
        "meta_mean_anomaly": 6.8844,
        "meta_ephemeris_type": 0,
        "meta_classification_type": "U",
        "meta_norad_cat_id": 38338,
        "meta_element_set_no": 999,
        "meta_rev_at_epoch": 72345,
        "meta_bstar": 0.00025035128,
        "meta_mean_motion_dot": 1.199e-05,
        "meta_mean_motion_ddot": 0,
        "tle_line1": "1 38338U 12025B   25342.29362065  .00001199  00000+0  25035-3 0  9991",
        "tle_line2": "2 38338  98.3318 296.8497 0005677 353.2279   6.8844 14.61704061723451"
      },
      "geometry": {
        "type": "Point",
        "coordinates": [
          111.45317996733087,
          -35.13990832208367
        ]
      }
    }
  ]
}